{
  "type": "FeatureCollection",
  "features": [
    {
      "type": "Feature",
      "id": "chencun",
      "properties": {
        "id": "chencun",
        "name": "陈村",
        "fullName": "陈村镇",
        "district": "顺德区",
        "city": "佛山市"
      },
      "geometry": {
        "type": "Polygon",
        "coordinates": [
          [
            [
              113.146705,
              22.992743
            ],
            [
              113.158839,
              22.982111
            ],
            [
              113.16562,
              22.981862
            ],
            [
              113.167593,
              22.978569
            ],
            [
              113.18185,
              22.978436
            ],
            [
              113.185582,
              22.976161
            ],
            [
              113.203059,
              22.976597
            ],
            [
              113.212887,
              22.980672
            ],
            [
              113.215441,
              22.980248
            ],
            [
              113.217066,
              22.97792
            ],
            [
              113.220364,
              22.97849
            ],
            [
              113.224643,
              22.976229
            ],
            [
              113.235336,
              22.966537
            ],
            [
              113.239429,
              22.965663
            ],
            [
              113.247569,
              22.956395
            ],
            [
              113.250222,
              22.956461
            ],
            [
              113.252745,
              22.96126
            ],
            [
              113.25946,
              22.965675
            ],
            [
              113.263023,
              22.975235
            ],
            [
              113.280896,
              22.97763
            ],
            [
              113.281179,
              22.979029
            ],
            [
              113.271431,
              22.983035
            ],
            [
              113.265432,
              22.995212
            ],
            [
              113.258153,
              22.998373
            ],
            [
              113.254903,
              23.003028
            ],
            [
              113.248143,
              23.003765
            ],
            [
              113.247361,
              23.007576
            ],
            [
              113.241826,
              23.011686
            ],
            [
              113.242407,
              23.014555
            ],
            [
              113.238313,
              23.017727
            ],
            [
              113.239322,
              23.02771
            ],
            [
              113.217008,
              23.027155
            ],
            [
              113.216527,
              23.024775
            ],
            [
              113.21157,
              23.023676
            ],
            [
              113.210259,
              23.019883
            ],
            [
              113.19746,
              23.011486
            ],
            [
              113.18602,
              23.009809
            ],
            [
              113.183845,
              23.004044
            ],
            [
              113.163355,
              23.002141
            ],
            [
              113.146705,
              22.992743
            ]
          ]
        ]
      }
    },
    {
      "type": "Feature",
      "id": "beijiao",
      "properties": {
        "id": "beijiao",
        "name": "北滘",
        "fullName": "北滘镇",
        "district": "顺德区",
        "city": "佛山市"
      },
      "geometry": {
        "type": "Polygon",
        "coordinates": [
          [
            [
              113.1541,
              22.982481
            ],
            [
              113.153466,
              22.973969
            ],
            [
              113.157679,
              22.974074
            ],
            [
              113.160745,
              22.970807
            ],
            [
              113.159728,
              22.960406
            ],
            [
              113.15217,
              22.954507
            ],
            [
              113.155619,
              22.950832
            ],
            [
              113.153526,
              22.935111
            ],
            [
              113.146593,
              22.92693
            ],
            [
              113.144487,
              22.926877
            ],
            [
              113.144736,
              22.925421
            ],
            [
              113.1418,
              22.923955
            ],
            [
              113.153074,
              22.917133
            ],
            [
              113.170383,
              22.911366
            ],
            [
              113.172009,
              22.909038
            ],
            [
              113.17035,
              22.906212
            ],
            [
              113.171592,
              22.904293
            ],
            [
              113.191637,
              22.904374
            ],
            [
              113.197806,
              22.908776
            ],
            [
              113.205699,
              22.91134
            ],
            [
              113.208516,
              22.90953
            ],
            [
              113.213558,
              22.911048
            ],
            [
              113.216177,
              22.908258
            ],
            [
              113.23549,
              22.909714
            ],
            [
              113.242605,
              22.908429
            ],
            [
              113.24859,
              22.91192
            ],
            [
              113.257442,
              22.911166
            ],
            [
              113.26159,
              22.913637
            ],
            [
              113.277968,
              22.913627
            ],
            [
              113.283505,
              22.919893
            ],
            [
              113.285812,
              22.931302
            ],
            [
              113.288662,
              22.932348
            ],
            [
              113.287123,
              22.932797
            ],
            [
              113.287624,
              22.937963
            ],
            [
              113.291103,
              22.947103
            ],
            [
              113.304256,
              22.954952
            ],
            [
              113.304239,
              22.962542
            ],
            [
              113.302135,
              22.970568
            ],
            [
              113.299865,
              22.972391
            ],
            [
              113.280797,
              22.97714
            ],
            [
              113.273549,
              22.975079
            ],
            [
              113.262938,
              22.974815
            ],
            [
              113.260006,
              22.965688
            ],
            [
              113.251993,
              22.959848
            ],
            [
              113.250768,
              22.956475
            ],
            [
              113.24747,
              22.955905
            ],
            [
              113.242745,
              22.958643
            ],
            [
              113.23933,
              22.965174
            ],
            [
              113.231505,
              22.968321
            ],
            [
              113.224543,
              22.975739
            ],
            [
              113.221891,
              22.975673
            ],
            [
              113.220265,
              22.978
            ],
            [
              113.215854,
              22.976915
            ],
            [
              113.216236,
              22.978805
            ],
            [
              113.213335,
              22.980195
            ],
            [
              113.210747,
              22.977763
            ],
            [
              113.202959,
              22.976107
            ],
            [
              113.188597,
              22.975331
            ],
            [
              113.181751,
              22.977946
            ],
            [
              113.167494,
              22.978079
            ],
            [
              113.16552,
              22.981372
            ],
            [
              113.157661,
              22.981664
            ],
            [
              113.156951,
              22.983527
            ],
            [
              113.1541,
              22.982481
            ]
          ]
        ]
      }
    },
    {
      "type": "Feature",
      "id": "lecong",
      "properties": {
        "id": "lecong",
        "name": "乐从",
        "fullName": "乐从镇",
        "district": "顺德区",
        "city": "佛山市"
      },
      "geometry": {
        "type": "Polygon",
        "coordinates": [
          [
            [
              113.06628,
              22.989277
            ],
            [
              113.067434,
              22.976562
            ],
            [
              113.071648,
              22.976667
            ],
            [
              113.072423,
              22.972438
            ],
            [
              113.078326,
              22.96785
            ],
            [
              113.076401,
              22.958331
            ],
            [
              113.072752,
              22.950649
            ],
            [
              113.06703,
              22.945771
            ],
            [
              113.054067,
              22.93925
            ],
            [
              113.058326,
              22.934203
            ],
            [
              113.056967,
              22.927484
            ],
            [
              113.054478,
              22.925541
            ],
            [
              113.057565,
              22.922763
            ],
            [
              113.0568,
              22.918983
            ],
            [
              113.064092,
              22.91819
            ],
            [
              113.071174,
              22.91175
            ],
            [
              113.074919,
              22.911844
            ],
            [
              113.076545,
              22.909516
            ],
            [
              113.083957,
              22.909701
            ],
            [
              113.089228,
              22.906977
            ],
            [
              113.091116,
              22.903263
            ],
            [
              113.100284,
              22.896388
            ],
            [
              113.105906,
              22.900777
            ],
            [
              113.111293,
              22.908989
            ],
            [
              113.111808,
              22.914225
            ],
            [
              113.107615,
              22.916906
            ],
            [
              113.11204,
              22.920359
            ],
            [
              113.11894,
              22.923386
            ],
            [
              113.141254,
              22.923942
            ],
            [
              113.14419,
              22.925408
            ],
            [
              113.144572,
              22.927297
            ],
            [
              113.146047,
              22.926916
            ],
            [
              113.15298,
              22.935098
            ],
            [
              113.155151,
              22.950821
            ],
            [
              113.151624,
              22.954493
            ],
            [
              113.159182,
              22.960392
            ],
            [
              113.160711,
              22.967951
            ],
            [
              113.159482,
              22.972238
            ],
            [
              113.15292,
              22.973955
            ],
            [
              113.153632,
              22.982469
            ],
            [
              113.156036,
              22.983991
            ],
            [
              113.146954,
              22.991286
            ],
            [
              113.135414,
              22.989119
            ],
            [
              113.11915,
              22.989689
            ],
            [
              113.115517,
              22.992453
            ],
            [
              113.097033,
              22.992411
            ],
            [
              113.09506,
              22.995705
            ],
            [
              113.06628,
              22.989277
            ]
          ]
        ]
      }
    },
    {
      "type": "Feature",
      "id": "longjiang",
      "properties": {
        "id": "longjiang",
        "name": "龙江",
        "fullName": "龙江镇",
        "district": "顺德区",
        "city": "佛山市"
      },
      "geometry": {
        "type": "Polygon",
        "coordinates": [
          [
            [
              113.056701,
              22.918493
            ],
            [
              113.043585,
              22.90584
            ],
            [
              113.040264,
              22.894406
            ],
            [
              113.035308,
              22.89101
            ],
            [
              113.023286,
              22.888761
            ],
            [
              113.007568,
              22.889344
            ],
            [
              113.006889,
              22.885984
            ],
            [
              113.00228,
              22.881622
            ],
            [
              112.997139,
              22.879613
            ],
            [
              112.996275,
              22.875344
            ],
            [
              112.999474,
              22.875423
            ],
            [
              113.004733,
              22.870331
            ],
            [
              113.004217,
              22.865096
            ],
            [
              113.013647,
              22.856834
            ],
            [
              113.012685,
              22.852075
            ],
            [
              113.017792,
              22.851227
            ],
            [
              113.025116,
              22.842913
            ],
            [
              113.034983,
              22.842184
            ],
            [
              113.033604,
              22.832679
            ],
            [
              113.03989,
              22.82998
            ],
            [
              113.04524,
              22.82496
            ],
            [
              113.043881,
              22.81824
            ],
            [
              113.039239,
              22.811022
            ],
            [
              113.045722,
              22.809303
            ],
            [
              113.048939,
              22.801792
            ],
            [
              113.063524,
              22.797907
            ],
            [
              113.066942,
              22.799455
            ],
            [
              113.07084,
              22.80568
            ],
            [
              113.075103,
              22.821386
            ],
            [
              113.079527,
              22.824839
            ],
            [
              113.079845,
              22.829095
            ],
            [
              113.074856,
              22.833218
            ],
            [
              113.079018,
              22.838058
            ],
            [
              113.078223,
              22.8395
            ],
            [
              113.08081,
              22.841932
            ],
            [
              113.08462,
              22.839659
            ],
            [
              113.088287,
              22.839751
            ],
            [
              113.098965,
              22.848025
            ],
            [
              113.095702,
              22.850312
            ],
            [
              113.097244,
              22.857941
            ],
            [
              113.10286,
              22.861911
            ],
            [
              113.104574,
              22.868082
            ],
            [
              113.096814,
              22.868864
            ],
            [
              113.089251,
              22.872924
            ],
            [
              113.091262,
              22.880564
            ],
            [
              113.103414,
              22.890756
            ],
            [
              113.103895,
              22.893136
            ],
            [
              113.095906,
              22.89816
            ],
            [
              113.089143,
              22.906557
            ],
            [
              113.083857,
              22.909211
            ],
            [
              113.076445,
              22.909026
            ],
            [
              113.07482,
              22.911354
            ],
            [
              113.071075,
              22.911261
            ],
            [
              113.064007,
              22.91777
            ],
            [
              113.056701,
              22.918493
            ]
          ]
        ]
      }
    },
    {
      "type": "Feature",
      "id": "lunjiao",
      "properties": {
        "id": "lunjiao",
        "name": "伦教",
        "fullName": "伦教街道",
        "district": "顺德区",
        "city": "佛山市"
      },
      "geometry": {
        "type": "Polygon",
        "coordinates": [
          [
            [
              113.29863,
              22.851117
            ],
            [
              113.297872,
              22.865792
            ],
            [
              113.291456,
              22.873223
            ],
            [
              113.292801,
              22.879873
            ],
            [
              113.295935,
              22.882318
            ],
            [
              113.297989,
              22.887105
            ],
            [
              113.296432,
              22.895145
            ],
            [
              113.283769,
              22.90047
            ],
            [
              113.277353,
              22.907901
            ],
            [
              113.278415,
              22.913151
            ],
            [
              113.266244,
              22.912848
            ],
            [
              113.258918,
              22.910785
            ],
            [
              113.248491,
              22.91143
            ],
            [
              113.243612,
              22.908036
            ],
            [
              113.235391,
              22.909224
            ],
            [
              113.216078,
              22.907768
            ],
            [
              113.214367,
              22.909675
            ],
            [
              113.203295,
              22.909818
            ],
            [
              113.197707,
              22.908286
            ],
            [
              113.191538,
              22.903884
            ],
            [
              113.173699,
              22.904345
            ],
            [
              113.171309,
              22.902893
            ],
            [
              113.16864,
              22.89238
            ],
            [
              113.169982,
              22.888653
            ],
            [
              113.165353,
              22.883802
            ],
            [
              113.172401,
              22.874507
            ],
            [
              113.17109,
              22.870713
            ],
            [
              113.176774,
              22.864657
            ],
            [
              113.176109,
              22.861367
            ],
            [
              113.186376,
              22.854938
            ],
            [
              113.199738,
              22.855758
            ],
            [
              113.213848,
              22.867948
            ],
            [
              113.216698,
              22.868994
            ],
            [
              113.220146,
              22.867617
            ],
            [
              113.22708,
              22.873501
            ],
            [
              113.229897,
              22.87169
            ],
            [
              113.235619,
              22.876568
            ],
            [
              113.236875,
              22.874719
            ],
            [
              113.246906,
              22.872114
            ],
            [
              113.249326,
              22.868344
            ],
            [
              113.25483,
              22.869456
            ],
            [
              113.261925,
              22.865385
            ],
            [
              113.271542,
              22.866112
            ],
            [
              113.272687,
              22.861405
            ],
            [
              113.276233,
              22.860518
            ],
            [
              113.278668,
              22.856818
            ],
            [
              113.285783,
              22.855533
            ],
            [
              113.28777,
              22.852309
            ],
            [
              113.292615,
              22.852848
            ],
            [
              113.29863,
              22.851117
            ]
          ]
        ]
      }
    },
    {
      "type": "Feature",
      "id": "leliu",
      "properties": {
        "id": "leliu",
        "name": "勒流",
        "fullName": "勒流街道",
        "district": "顺德区",
        "city": "佛山市"
      },
      "geometry": {
        "type": "Polygon",
        "coordinates": [
          [
            [
              113.113699,
              22.920888
            ],
            [
              113.108161,
              22.91692
            ],
            [
              113.112355,
              22.914238
            ],
            [
              113.111839,
              22.909003
            ],
            [
              113.106452,
              22.90079
            ],
            [
              113.100929,
              22.896892
            ],
            [
              113.104364,
              22.893147
            ],
            [
              113.103882,
              22.890768
            ],
            [
              113.091808,
              22.880578
            ],
            [
              113.090002,
              22.874335
            ],
            [
              113.090613,
              22.871982
            ],
            [
              113.103758,
              22.869037
            ],
            [
              113.105468,
              22.867129
            ],
            [
              113.103328,
              22.861923
            ],
            [
              113.09779,
              22.857955
            ],
            [
              113.096248,
              22.850325
            ],
            [
              113.099611,
              22.848529
            ],
            [
              113.113072,
              22.849839
            ],
            [
              113.125657,
              22.84681
            ],
            [
              113.128508,
              22.847856
            ],
            [
              113.132404,
              22.843705
            ],
            [
              113.131888,
              22.838469
            ],
            [
              113.129003,
              22.834567
            ],
            [
              113.130147,
              22.82986
            ],
            [
              113.152428,
              22.825261
            ],
            [
              113.155382,
              22.819137
            ],
            [
              113.159291,
              22.817354
            ],
            [
              113.162095,
              22.813176
            ],
            [
              113.164328,
              22.800417
            ],
            [
              113.172184,
              22.789749
            ],
            [
              113.17242,
              22.785925
            ],
            [
              113.176776,
              22.783666
            ],
            [
              113.18465,
              22.783444
            ],
            [
              113.18467,
              22.78623
            ],
            [
              113.188166,
              22.787779
            ],
            [
              113.187391,
              22.792008
            ],
            [
              113.196509,
              22.797946
            ],
            [
              113.19782,
              22.801739
            ],
            [
              113.21742,
              22.812673
            ],
            [
              113.208883,
              22.819982
            ],
            [
              113.208354,
              22.830414
            ],
            [
              113.205072,
              22.840291
            ],
            [
              113.195588,
              22.84291
            ],
            [
              113.194696,
              22.854239
            ],
            [
              113.191312,
              22.855548
            ],
            [
              113.186291,
              22.854518
            ],
            [
              113.179479,
              22.859989
            ],
            [
              113.177273,
              22.859446
            ],
            [
              113.175563,
              22.861354
            ],
            [
              113.176228,
              22.864643
            ],
            [
              113.170892,
              22.869734
            ],
            [
              113.171854,
              22.874493
            ],
            [
              113.164807,
              22.883789
            ],
            [
              113.169436,
              22.888639
            ],
            [
              113.168094,
              22.892367
            ],
            [
              113.171507,
              22.903873
            ],
            [
              113.169882,
              22.9062
            ],
            [
              113.171114,
              22.909991
            ],
            [
              113.152975,
              22.916643
            ],
            [
              113.141701,
              22.923465
            ],
            [
              113.118841,
              22.922896
            ],
            [
              113.113699,
              22.920888
            ]
          ]
        ]
      }
    },
    {
      "type": "Feature",
      "id": "daliang",
      "properties": {
        "id": "daliang",
        "name": "大良",
        "fullName": "大良街道",
        "district": "顺德区",
        "city": "佛山市"
      },
      "geometry": {
        "type": "Polygon",
        "coordinates": [
          [
            [
              113.195341,
              22.854743
            ],
            [
              113.196134,
              22.842924
            ],
            [
              113.204341,
              22.841666
            ],
            [
              113.207756,
              22.835135
            ],
            [
              113.20943,
              22.819995
            ],
            [
              113.218314,
              22.81172
            ],
            [
              113.225146,
              22.809035
            ],
            [
              113.225375,
              22.804793
            ],
            [
              113.227447,
              22.801989
            ],
            [
              113.231476,
              22.801184
            ],
            [
              113.233132,
              22.793635
            ],
            [
              113.236396,
              22.791348
            ],
            [
              113.250128,
              22.79169
            ],
            [
              113.258151,
              22.789522
            ],
            [
              113.263193,
              22.79104
            ],
            [
              113.270584,
              22.790737
            ],
            [
              113.293864,
              22.804131
            ],
            [
              113.303516,
              22.807714
            ],
            [
              113.30907,
              22.80639
            ],
            [
              113.3188,
              22.809975
            ],
            [
              113.333723,
              22.810834
            ],
            [
              113.338613,
              22.80622
            ],
            [
              113.351166,
              22.808413
            ],
            [
              113.355938,
              22.810899
            ],
            [
              113.365556,
              22.811626
            ],
            [
              113.368341,
              22.817337
            ],
            [
              113.37239,
              22.819318
            ],
            [
              113.377941,
              22.825654
            ],
            [
              113.378903,
              22.830413
            ],
            [
              113.371761,
              22.829261
            ],
            [
              113.36256,
              22.833279
            ],
            [
              113.3517,
              22.834472
            ],
            [
              113.319867,
              22.833679
            ],
            [
              113.315326,
              22.837326
            ],
            [
              113.309772,
              22.83865
            ],
            [
              113.301847,
              22.843606
            ],
            [
              113.298648,
              22.843527
            ],
            [
              113.298531,
              22.850627
            ],
            [
              113.29253,
              22.852428
            ],
            [
              113.287671,
              22.851819
            ],
            [
              113.285684,
              22.855043
            ],
            [
              113.278569,
              22.856328
            ],
            [
              113.276134,
              22.860028
            ],
            [
              113.27214,
              22.861391
            ],
            [
              113.270351,
              22.865594
            ],
            [
              113.261826,
              22.864895
            ],
            [
              113.254731,
              22.868966
            ],
            [
              113.249241,
              22.867924
            ],
            [
              113.246807,
              22.871624
            ],
            [
              113.236776,
              22.874229
            ],
            [
              113.23552,
              22.876078
            ],
            [
              113.229798,
              22.8712
            ],
            [
              113.226981,
              22.873011
            ],
            [
              113.220061,
              22.867197
            ],
            [
              113.213749,
              22.867458
            ],
            [
              113.199639,
              22.855268
            ],
            [
              113.195341,
              22.854743
            ]
          ]
        ]
      }
    },
    {
      "type": "Feature",
      "id": "xingtan",
      "properties": {
        "id": "xingtan",
        "name": "杏坛",
        "fullName": "杏坛镇",
        "district": "顺德区",
        "city": "佛山市"
      },
      "geometry": {
        "type": "Polygon",
        "coordinates": [
          [
            [
              113.039154,
              22.810602
            ],
            [
              113.036867,
              22.801979
            ],
            [
              113.039848,
              22.798293
            ],
            [
              113.037113,
              22.790146
            ],
            [
              113.03922,
              22.790199
            ],
            [
              113.043017,
              22.785558
            ],
            [
              113.043147,
              22.780825
            ],
            [
              113.049695,
              22.77674
            ],
            [
              113.047736,
              22.764365
            ],
            [
              113.062725,
              22.762858
            ],
            [
              113.06408,
              22.761499
            ],
            [
              113.080266,
              22.760927
            ],
            [
              113.088419,
              22.754027
            ],
            [
              113.092281,
              22.74702
            ],
            [
              113.094835,
              22.746596
            ],
            [
              113.094353,
              22.744216
            ],
            [
              113.100868,
              22.737275
            ],
            [
              113.10065,
              22.733509
            ],
            [
              113.102459,
              22.732092
            ],
            [
              113.115211,
              22.735265
            ],
            [
              113.120482,
              22.732541
            ],
            [
              113.138256,
              22.734446
            ],
            [
              113.165032,
              22.73365
            ],
            [
              113.178044,
              22.727358
            ],
            [
              113.182704,
              22.726987
            ],
            [
              113.184875,
              22.724673
            ],
            [
              113.196234,
              22.734009
            ],
            [
              113.198507,
              22.742562
            ],
            [
              113.205058,
              22.748853
            ],
            [
              113.204112,
              22.75454
            ],
            [
              113.188014,
              22.76361
            ],
            [
              113.194087,
              22.7756
            ],
            [
              113.191864,
              22.782648
            ],
            [
              113.193372,
              22.787422
            ],
            [
              113.189279,
              22.788295
            ],
            [
              113.185783,
              22.786745
            ],
            [
              113.185118,
              22.783455
            ],
            [
              113.183359,
              22.782437
            ],
            [
              113.17323,
              22.784552
            ],
            [
              113.171638,
              22.789736
            ],
            [
              113.163781,
              22.800404
            ],
            [
              113.161626,
              22.813164
            ],
            [
              113.154914,
              22.819125
            ],
            [
              113.152329,
              22.824771
            ],
            [
              113.141837,
              22.827783
            ],
            [
              113.131326,
              22.828009
            ],
            [
              113.128457,
              22.834553
            ],
            [
              113.131342,
              22.838455
            ],
            [
              113.131857,
              22.843691
            ],
            [
              113.128409,
              22.847366
            ],
            [
              113.125558,
              22.84632
            ],
            [
              113.112973,
              22.849349
            ],
            [
              113.099512,
              22.848039
            ],
            [
              113.088188,
              22.839261
            ],
            [
              113.084521,
              22.83917
            ],
            [
              113.080711,
              22.841442
            ],
            [
              113.075402,
              22.833232
            ],
            [
              113.080391,
              22.829108
            ],
            [
              113.079995,
              22.82485
            ],
            [
              113.075649,
              22.821399
            ],
            [
              113.073158,
              22.809081
            ],
            [
              113.066276,
              22.798463
            ],
            [
              113.062879,
              22.797404
            ],
            [
              113.059069,
              22.799676
            ],
            [
              113.056232,
              22.798701
            ],
            [
              113.048854,
              22.801372
            ],
            [
              113.045623,
              22.808813
            ],
            [
              113.039154,
              22.810602
            ]
          ]
        ]
      }
    },
    {
      "type": "Feature",
      "id": "ronggui",
      "properties": {
        "id": "ronggui",
        "name": "容桂",
        "fullName": "容桂街道",
        "district": "顺德区",
        "city": "佛山市"
      },
      "geometry": {
        "type": "Polygon",
        "coordinates": [
          [
            [
              113.187937,
              22.792022
            ],
            [
              113.188265,
              22.788269
            ],
            [
              113.192017,
              22.788781
            ],
            [
              113.19384,
              22.787433
            ],
            [
              113.19241,
              22.782662
            ],
            [
              113.194732,
              22.776104
            ],
            [
              113.18856,
              22.763624
            ],
            [
              113.204211,
              22.75503
            ],
            [
              113.205157,
              22.749343
            ],
            [
              113.217604,
              22.750628
            ],
            [
              113.220428,
              22.749236
            ],
            [
              113.22979,
              22.735263
            ],
            [
              113.233655,
              22.736334
            ],
            [
              113.244979,
              22.745112
            ],
            [
              113.289925,
              22.748181
            ],
            [
              113.297504,
              22.756866
            ],
            [
              113.302843,
              22.759854
            ],
            [
              113.308599,
              22.767588
            ],
            [
              113.312975,
              22.768115
            ],
            [
              113.317868,
              22.77158
            ],
            [
              113.322159,
              22.771686
            ],
            [
              113.332377,
              22.778069
            ],
            [
              113.337481,
              22.784882
            ],
            [
              113.335046,
              22.788582
            ],
            [
              113.335114,
              22.794294
            ],
            [
              113.338514,
              22.80573
            ],
            [
              113.333624,
              22.810344
            ],
            [
              113.318701,
              22.809485
            ],
            [
              113.308971,
              22.8059
            ],
            [
              113.303417,
              22.807224
            ],
            [
              113.293765,
              22.803641
            ],
            [
              113.273804,
              22.791305
            ],
            [
              113.258052,
              22.789032
            ],
            [
              113.250029,
              22.7912
            ],
            [
              113.235304,
              22.791321
            ],
            [
              113.232586,
              22.793621
            ],
            [
              113.23093,
              22.801171
            ],
            [
              113.227348,
              22.801499
            ],
            [
              113.224828,
              22.804779
            ],
            [
              113.225046,
              22.808545
            ],
            [
              113.216753,
              22.811681
            ],
            [
              113.199578,
              22.802758
            ],
            [
              113.197056,
              22.797959
            ],
            [
              113.187937,
              22.792022
            ]
          ]
        ]
      }
    },
    {
      "type": "Feature",
      "id": "junan",
      "properties": {
        "id": "junan",
        "name": "均安",
        "fullName": "均安镇",
        "district": "顺德区",
        "city": "佛山市"
      },
      "geometry": {
        "type": "Polygon",
        "coordinates": [
          [
            [
              113.047637,
              22.763875
            ],
            [
              113.049274,
              22.75354
            ],
            [
              113.04637,
              22.728815
            ],
            [
              113.047795,
              22.715131
            ],
            [
              113.046549,
              22.708972
            ],
            [
              113.04824,
              22.704278
            ],
            [
              113.053214,
              22.700084
            ],
            [
              113.070222,
              22.700508
            ],
            [
              113.10386,
              22.67913
            ],
            [
              113.114173,
              22.677925
            ],
            [
              113.123258,
              22.681006
            ],
            [
              113.133869,
              22.681271
            ],
            [
              113.14022,
              22.676206
            ],
            [
              113.146006,
              22.678717
            ],
            [
              113.152854,
              22.686479
            ],
            [
              113.159368,
              22.697575
            ],
            [
              113.174392,
              22.7093
            ],
            [
              113.183401,
              22.722756
            ],
            [
              113.183612,
              22.726104
            ],
            [
              113.177945,
              22.726868
            ],
            [
              113.164947,
              22.73323
            ],
            [
              113.146925,
              22.732781
            ],
            [
              113.144009,
              22.734101
            ],
            [
              113.120397,
              22.732121
            ],
            [
              113.115112,
              22.734775
            ],
            [
              113.102374,
              22.731672
            ],
            [
              113.100104,
              22.733496
            ],
            [
              113.100322,
              22.737262
            ],
            [
              113.093807,
              22.744203
            ],
            [
              113.094289,
              22.746582
            ],
            [
              113.092182,
              22.74653
            ],
            [
              113.087873,
              22.754013
            ],
            [
              113.080167,
              22.760437
            ],
            [
              113.063981,
              22.761009
            ],
            [
              113.062625,
              22.762368
            ],
            [
              113.047637,
              22.763875
            ]
          ]
        ]
      }
    }
  ]
}